[{"OBJECT_NAME":"STARLINK-35386","OBJECT_ID":"2025-223J","EPOCH":"2026-03-09T21:39:46.781856","MEAN_MOTION":15.30193769,"ECCENTRICITY":0.0001049,"INCLINATION":53.1575,"RA_OF_ASC_NODE":293.513,"ARG_OF_PERICENTER":72.1939,"MEAN_ANOMALY":287.9176,"EPHEMERIS_TYPE":0,"CLASSIFICATION_TYPE":"U","NORAD_CAT_ID":65862,"ELEMENT_SET_NO":999,"REV_AT_EPOCH":2423,"BSTAR":0.00094093941,"MEAN_MOTION_DOT":0.00027607,"MEAN_MOTION_DDOT":0},{"OBJECT_NAME":"TRANSPORTER-1 OBJECT L","OBJECT_ID":"2021-006L","EPOCH":"2026-03-09T22:38:42.795168","MEAN_MOTION":15.33192932,"ECCENTRICITY":0.00114726,"INCLINATION":97.2368,"RA_OF_ASC_NODE":117.6447,"ARG_OF_PERICENTER":180.5165,"MEAN_ANOMALY":179.6068,"EPHEMERIS_TYPE":0,"CLASSIFICATION_TYPE":"U","NORAD_CAT_ID":47423,"ELEMENT_SET_NO":999,"REV_AT_EPOCH":28445,"BSTAR":0.00025636794,"MEAN_MOTION_DOT":8.162e-5,"MEAN_MOTION_DDOT":0}]
